{"type": "FeatureCollection", "features": [ {"type": "Feature", "properties": {"norad_id": 34376, "name": "IRIDIUM 33 DEB", "group": "iridium-33-debris", "lat": -60.08473703379019, "lon": -173.17681828636105, "alt_km": 701.1035434819014, "timestamp": "2025-12-26T11:25:45.576169+00:00", "meta": {"OBJECT_NAME": "IRIDIUM 33 DEB", "OBJECT_ID": "1997-051FU", "EPOCH": "2025-12-26T00:29:09.701088", "MEAN_MOTION": 14.62749123, "ECCENTRICITY": 0.0028587, "INCLINATION": 86.2985, "RA_OF_ASC_NODE": 0.5681, "ARG_OF_PERICENTER": 123.3286, "MEAN_ANOMALY": 237.0669, "EPHEMERIS_TYPE": 0, "CLASSIFICATION_TYPE": "U", "NORAD_CAT_ID": 34376, "ELEMENT_SET_NO": 999, "REV_AT_EPOCH": 88201, "BSTAR": 0.0014873, "MEAN_MOTION_DOT": 7.648e-05, "MEAN_MOTION_DDOT": 0}, "tle": {"line1": "1 34376U 97051FU  25360.02025117  .00007648  00000+0  14873-2 0  9998", "line2": "2 34376  86.2985   0.5681 0028587 123.3286 237.0669 14.62749123882019"}}, "geometry": {"type": "Point", "coordinates": [-173.17681828636105, -60.08473703379019]}}, {"type": "Feature", "properties": {"norad_id": 34486, "name": "IRIDIUM 33 DEB", "group": "iridium-33-debris", "lat": -52.3725933703607, "lon": 0.9874263402201474, "alt_km": 590.6320537688771, "timestamp": "2025-12-26T11:25:45.576178+00:00", "meta": {"OBJECT_NAME": "IRIDIUM 33 DEB", "OBJECT_ID": "1997-051GB", "EPOCH": "2025-12-26T00:39:56.499264", "MEAN_MOTION": 14.96400313, "ECCENTRICITY": 0.0013918, "INCLINATION": 86.3935, "RA_OF_ASC_NODE": 5.8877, "ARG_OF_PERICENTER": 74.4824, "MEAN_ANOMALY": 338.8012, "EPHEMERIS_TYPE": 0, "CLASSIFICATION_TYPE": "U", "NORAD_CAT_ID": 34486, "ELEMENT_SET_NO": 999, "REV_AT_EPOCH": 89185, "BSTAR": 0.0021413, "MEAN_MOTION_DOT": 0.00024383, "MEAN_MOTION_DDOT": 0}, "tle": {"line1": "1 34486U 97051GB  25360.02773726  .00024383  00000+0  21413-2 0  9999", "line2": "2 34486  86.3935   5.8877 0013918  74.4824 338.8012 14.96400313891854"}}, "geometry": {"type": "Point", "coordinates": [0.9874263402201474, -52.3725933703607]}}, {"type": "Feature", "properties": {"norad_id": 34487, "name": "IRIDIUM 33 DEB", "group": "iridium-33-debris", "lat": -52.354360821672685, "lon": -168.78150046842535, "alt_km": 774.7053996968752, "timestamp": "2025-12-26T11:25:45.576187+00:00", "meta": {"OBJECT_NAME": "IRIDIUM 33 DEB", "OBJECT_ID": "1997-051GC", "EPOCH": "2025-12-26T00:37:21.163296", "MEAN_MOTION": 14.43232747, "ECCENTRICITY": 0.0033262, "INCLINATION": 86.3429, "RA_OF_ASC_NODE": 6.6563, "ARG_OF_PERICENTER": 87.1121, "MEAN_ANOMALY": 327.0907, "EPHEMERIS_TYPE": 0, "CLASSIFICATION_TYPE": "U", "NORAD_CAT_ID": 34487, "ELEMENT_SET_NO": 999, "REV_AT_EPOCH": 88440, "BSTAR": 0.0001856, "MEAN_MOTION_DOT": 6.49e-06, "MEAN_MOTION_DDOT": 0}, "tle": {"line1": "1 34487U 97051GC  25360.02593939  .00000649  00000+0  18560-3 0  9995", "line2": "2 34487  86.3429   6.6563 0033262  87.1121 327.0907 14.43232747884401"}}, "geometry": {"type": "Point", "coordinates": [-168.78150046842535, -52.354360821672685]}}, {"type": "Feature", "properties": {"norad_id": 34488, "name": "IRIDIUM 33 DEB", "group": "iridium-33-debris", "lat": -40.15053579209181, "lon": 122.10112174344302, "alt_km": 479.2367488411255, "timestamp": "2025-12-26T11:25:45.576196+00:00", "meta": {"OBJECT_NAME": "IRIDIUM 33 DEB", "OBJECT_ID": "1997-051GD", "EPOCH": "2025-12-25T20:22:16.973184", "MEAN_MOTION": 15.32823177, "ECCENTRICITY": 0.00085439, "INCLINATION": 86.325, "RA_OF_ASC_NODE": 299.3053, "ARG_OF_PERICENTER": 30.257, "MEAN_ANOMALY": 329.9171, "EPHEMERIS_TYPE": 0, "CLASSIFICATION_TYPE": "U", "NORAD_CAT_ID": 34488, "ELEMENT_SET_NO": 999, "REV_AT_EPOCH": 89440, "BSTAR": 0.0046585997, "MEAN_MOTION_DOT": 0.00150449, "MEAN_MOTION_DDOT": 0}, "tle": {"line1": "1 34488U 97051GD  25359.84880756  .00150449  00000+0  46586-2 0  9992", "line2": "2 34488  86.3250 299.3053 0008543  30.2570 329.9171 15.32823177894407"}}, "geometry": {"type": "Point", "coordinates": [122.10112174344302, -40.15053579209181]}}, {"type": "Feature", "properties": {"norad_id": 34492, "name": "IRIDIUM 33 DEB", "group": "iridium-33-debris", "lat": -3.6874239166607037, "lon": 149.30338984544193, "alt_km": 675.1530153043377, "timestamp": "2025-12-26T11:25:45.576205+00:00", "meta": {"OBJECT_NAME": "IRIDIUM 33 DEB", "OBJECT_ID": "1997-051GH", "EPOCH": "2025-12-24T21:39:21.521088", "MEAN_MOTION": 14.25932668, "ECCENTRICITY": 0.0188786, "INCLINATION": 86.473, "RA_OF_ASC_NODE": 329.7114, "ARG_OF_PERICENTER": 198.6425, "MEAN_ANOMALY": 190.963, "EPHEMERIS_TYPE": 0, "CLASSIFICATION_TYPE": "U", "NORAD_CAT_ID": 34492, "ELEMENT_SET_NO": 999, "REV_AT_EPOCH": 85232, "BSTAR": 0.0029502, "MEAN_MOTION_DOT": 8.501e-05, "MEAN_MOTION_DDOT": 0}, "tle": {"line1": "1 34492U 97051GH  25358.90233242  .00008501  00000+0  29502-2 0  9995", "line2": "2 34492  86.4730 329.7114 0188786 198.6425 190.9630 14.25932668852326"}}, "geometry": {"type": "Point", "coordinates": [149.30338984544193, -3.6874239166607037]}}, {"type": "Feature", "properties": {"norad_id": 34497, "name": "IRIDIUM 33 DEB", "group": "iridium-33-debris", "lat": 37.644343845243995, "lon": -136.34575696978615, "alt_km": 847.0898078373029, "timestamp": "2025-12-26T11:25:45.576214+00:00", "meta": {"OBJECT_NAME": "IRIDIUM 33 DEB", "OBJECT_ID": "1997-051GN", "EPOCH": "2025-12-22T21:33:03.136608", "MEAN_MOTION": 14.27482363, "ECCENTRICITY": 0.00780484, "INCLINATION": 86.2769, "RA_OF_ASC_NODE": 48.0617, "ARG_OF_PERICENTER": 306.2683, "MEAN_ANOMALY": 179.2919, "EPHEMERIS_TYPE": 0, "CLASSIFICATION_TYPE": "U", "NORAD_CAT_ID": 34497, "ELEMENT_SET_NO": 999, "REV_AT_EPOCH": 87028, "BSTAR": 0.00056228088, "MEAN_MOTION_DOT": 1.443e-05, "MEAN_MOTION_DDOT": 0}, "tle": {"line1": "1 34497U 97051GN  25356.89795297  .00001443  00000+0  56228-3 0  9993", "line2": "2 34497  86.2769  48.0617 0078048 306.2683 179.2919 14.27482363870281"}}, "geometry": {"type": "Point", "coordinates": [-136.34575696978615, 37.644343845243995]}}, {"type": "Feature", "properties": {"norad_id": 34508, "name": "IRIDIUM 33 DEB", "group": "iridium-33-debris", "lat": 55.83148758632236, "lon": -88.5464921225055, "alt_km": 710.6746967302133, "timestamp": "2025-12-26T11:25:45.576223+00:00", "meta": {"OBJECT_NAME": "IRIDIUM 33 DEB", "OBJECT_ID": "1997-051GZ", "EPOCH": "2025-12-25T16:29:37.440096", "MEAN_MOTION": 14.38522285, "ECCENTRICITY": 0.00666774, "INCLINATION": 86.3701, "RA_OF_ASC_NODE": 97.1541, "ARG_OF_PERICENTER": 131.4809, "MEAN_ANOMALY": 229.2141, "EPHEMERIS_TYPE": 0, "CLASSIFICATION_TYPE": "U", "NORAD_CAT_ID": 34508, "ELEMENT_SET_NO": 999, "REV_AT_EPOCH": 87495, "BSTAR": 0.0012253995, "MEAN_MOTION_DOT": 3.862e-05, "MEAN_MOTION_DDOT": 0}, "tle": {"line1": "1 34508U 97051GZ  25359.68723889  .00003862  00000+0  12254-2 0  9991", "line2": "2 34508  86.3701  97.1541 0066677 131.4809 229.2141 14.38522285874956"}}, "geometry": {"type": "Point", "coordinates": [-88.5464921225055, 55.83148758632236]}}, {"type": "Feature", "properties": {"norad_id": 34521, "name": "IRIDIUM 33 DEB", "group": "iridium-33-debris", "lat": 85.02129405047349, "lon": 157.86879786957158, "alt_km": 673.688861078147, "timestamp": "2025-12-26T11:25:45.576233+00:00", "meta": {"OBJECT_NAME": "IRIDIUM 33 DEB", "OBJECT_ID": "1997-051HN", "EPOCH": "2025-12-26T02:47:56.394816", "MEAN_MOTION": 14.63475701, "ECCENTRICITY": 0.0003278, "INCLINATION": 86.3789, "RA_OF_ASC_NODE": 24.6572, "ARG_OF_PERICENTER": 163.8384, "MEAN_ANOMALY": 196.2933, "EPHEMERIS_TYPE": 0, "CLASSIFICATION_TYPE": "U", "NORAD_CAT_ID": 34521, "ELEMENT_SET_NO": 999, "REV_AT_EPOCH": 88668, "BSTAR": 0.00084543, "MEAN_MOTION_DOT": 4.399e-05, "MEAN_MOTION_DDOT": 0}, "tle": {"line1": "1 34521U 97051HN  25360.11662494  .00004399  00000+0  84543-3 0  9997", "line2": "2 34521  86.3789  24.6572 0003278 163.8384 196.2933 14.63475701886684"}}, "geometry": {"type": "Point", "coordinates": [157.86879786957158, 85.02129405047349]}}, {"type": "Feature", "properties": {"norad_id": 34525, "name": "IRIDIUM 33 DEB", "group": "iridium-33-debris", "lat": -19.94205730156664, "lon": 39.66059984758501, "alt_km": 753.516411703471, "timestamp": "2025-12-26T11:25:45.576242+00:00", "meta": {"OBJECT_NAME": "IRIDIUM 33 DEB", "OBJECT_ID": "1997-051HS", "EPOCH": "2025-12-26T03:27:06.511104", "MEAN_MOTION": 14.42936205, "ECCENTRICITY": 0.0006176, "INCLINATION": 86.3716, "RA_OF_ASC_NODE": 41.1217, "ARG_OF_PERICENTER": 64.0766, "MEAN_ANOMALY": 350.5685, "EPHEMERIS_TYPE": 0, "CLASSIFICATION_TYPE": "U", "NORAD_CAT_ID": 34525, "ELEMENT_SET_NO": 999, "REV_AT_EPOCH": 88281, "BSTAR": 0.00033086, "MEAN_MOTION_DOT": 1.126e-05, "MEAN_MOTION_DDOT": 0}, "tle": {"line1": "1 34525U 97051HS  25360.14382536  .00001126  00000+0  33086-3 0  9991", "line2": "2 34525  86.3716  41.1217 0006176  64.0766 350.5685 14.42936205882812"}}, "geometry": {"type": "Point", "coordinates": [39.66059984758501, -19.94205730156664]}}, {"type": "Feature", "properties": {"norad_id": 34529, "name": "IRIDIUM 33 DEB", "group": "iridium-33-debris", "lat": 58.35972322278304, "lon": -156.3701238968448, "alt_km": 746.6299983477411, "timestamp": "2025-12-26T11:25:45.576251+00:00", "meta": {"OBJECT_NAME": "IRIDIUM 33 DEB", "OBJECT_ID": "1997-051HW", "EPOCH": "2025-12-25T13:11:48.680736", "MEAN_MOTION": 14.40626161, "ECCENTRICITY": 0.0006214, "INCLINATION": 86.3628, "RA_OF_ASC_NODE": 29.95, "ARG_OF_PERICENTER": 140.827, "MEAN_ANOMALY": 219.338, "EPHEMERIS_TYPE": 0, "CLASSIFICATION_TYPE": "U", "NORAD_CAT_ID": 34529, "ELEMENT_SET_NO": 999, "REV_AT_EPOCH": 88326, "BSTAR": 0.00012953, "MEAN_MOTION_DOT": 4.33e-06, "MEAN_MOTION_DDOT": 0}, "tle": {"line1": "1 34529U 97051HW  25359.54986899  .00000433  00000+0  12953-3 0  9999", "line2": "2 34529  86.3628  29.9500 0006214 140.8270 219.3380 14.40626161883262"}}, "geometry": {"type": "Point", "coordinates": [-156.3701238968448, 58.35972322278304]}}]}